[
    {
        "Altitude(m)": 604983.0530344702,
        "Argument of Periapsis(deg)": 0.0,
        "Eccentricity": 0.0,
        "Inclination(deg)": 60.0,
        "Latitude(deg)": -0.09270241084306599,
        "Longitude(deg)": -29.916083481821946,
        "Mean Anomaly(deg)": -180.0,
        "RAAN(deg)": 250.00000000000003,
        "Satellite Name": "Test1 1111",
        "Satellite Number": 1111,
        "Semi-Major Axis(m)": 6980739.136638005,
        "Time(s)": 0
    },
    {
        "Altitude(m)": 605055.3328724194,
        "Argument of Periapsis(deg)": 0.00010418945913296404,
        "Eccentricity": 0.0,
        "Inclination(deg)": 60.0,
        "Latitude(deg)": -0.6331119409994946,
        "Longitude(deg)": -29.647957884142745,
        "Mean Anomaly(deg)": -179.37989385453815,
        "RAAN(deg)": 249.99957995086027,
        "Satellite Name": "Test1 1111",
        "Satellite Number": 1111,
        "Semi-Major Axis(m)": 6980739.136638005,
        "Time(s)": 10
    }
]